[{"OBJECT_NAME":"NEXSAT-1","OBJECT_ID":"2024-024E","EPOCH":"2026-03-09T22:47:24.778176","MEAN_MOTION":15.32166372,"ECCENTRICITY":0.00099795,"INCLINATION":97.3124,"RA_OF_ASC_NODE":144.1918,"ARG_OF_PERICENTER":108.5709,"MEAN_ANOMALY":251.6617,"EPHEMERIS_TYPE":0,"CLASSIFICATION_TYPE":"U","NORAD_CAT_ID":58921,"ELEMENT_SET_NO":999,"REV_AT_EPOCH":11669,"BSTAR":0.00031433612,"MEAN_MOTION_DOT":9.702e-5,"MEAN_MOTION_DDOT":0},{"OBJECT_NAME":"STARLINK-34888","OBJECT_ID":"2025-195P","EPOCH":"2026-03-09T22:55:30.190656","MEAN_MOTION":15.30204893,"ECCENTRICITY":0.00010146,"INCLINATION":53.1566,"RA_OF_ASC_NODE":256.9944,"ARG_OF_PERICENTER":72.2377,"MEAN_ANOMALY":287.8734,"EPHEMERIS_TYPE":0,"CLASSIFICATION_TYPE":"U","NORAD_CAT_ID":65471,"ELEMENT_SET_NO":999,"REV_AT_EPOCH":3003,"BSTAR":0.0007813874,"MEAN_MOTION_DOT":0.00022858,"MEAN_MOTION_DDOT":0}]
